COSMOS 1892             
1 18421U 87088A   21171.31188595  .00000494  00000-0  22853-4 0  9990
2 18421  82.5005 269.3362 0013747 223.3279 136.6874 15.17670664840559
SL-14 R/B               
1 18749U 88001B   21171.55828734  .00000082  00000-0  70652-5 0  9995
2 18749  82.5140  12.6700 0019192 160.7613 261.3713 14.83262948786431
COSMOS 1933             
1 18958U 88020A   21171.35550744  .00000683  00000-0  47447-4 0  9991
2 18958  82.5291 130.2841 0011193 348.4042  11.6925 15.03937753811545
SL-3 R/B                
1 19046U 88032B   21171.53481050 -.00000482  00000-0 -30977-4 0  9995
2 19046  97.3861 181.9325 0038490  34.6434 325.7288 15.02942740792246
SL-16 R/B               
1 19120U 88039B   21171.17611254 -.00000069  00000-0 -10234-4 0  9991
2 19120  71.0134 111.5031 0019770 104.8232 255.5085 14.19220660713829
COSMOS 1953             
1 19210U 88050A   21171.37963865 -.00000037  00000-0 -45354-5 0  9991
2 19210  82.5172  52.6199 0011433 305.6386  54.3776 15.06289090777042
SL-8 R/B                
1 19257U 88053B   21171.40144682  .00000033  00000-0  19930-4 0  9991
2 19257  74.0496  44.4034 0021284 291.1723 242.0368 14.37523061729158
COSMOS 1975             
1 19573U 88093A   21171.55624492  .00000968  00000-0  65767-4 0  9990
2 19573  82.5195   7.5605 0014110 353.8881   6.2171 15.05189949758876
SL-14 R/B               
1 19574U 88093B   21171.54607340  .00000081  00000-0  69570-5 0  9996
2 19574  82.5320 215.8314 0020775 331.9982 140.5919 14.83373918745437
SL-16 R/B               
1 19650U 88102B   21171.44384715 -.00000236  00000-0 -95563-4 0  9993
2 19650  70.9983 176.0971 0012147 118.6904 241.5442 14.15806029682963
INTERCOSMOS 24          
1 20261U 89080A   21171.39158924  .00000168  00000-0  49160-4 0  9998
2 20261  82.6047 142.1815 1201505 318.8519  32.7724 12.56214532449789
SL-14 R/B               
1 20262U 89080C   21171.51377939  .00000075  00000-0  14822-4 0  9996
2 20262  82.5922 198.1558 1237336 157.8607 208.1091 12.48970714444936
DELTA 2 R/B(1)          
1 20303U 89085B   21171.53520241  .00001989  00000-0  62261-4 0  9990
2 20303  35.6407 215.2382 0091165 213.7124 145.7783 15.29236015724945
DELTA 1 R/B             
1 20323U 89089B   21171.50985933  .00000019  00000-0  13867-4 0  9997
2 20323  97.1217 265.3639 0072507 152.2074 208.3027 14.48405391666677
ARIANE 40 R/B           
1 20443U 90005H   21171.42996789  .00000016  00000-0  19964-4 0  9993
2 20443  98.5283 237.6636 0009692 332.3151  27.7519 14.38130298645260
DELTA 2 R/B(1)          
1 20453U 90008B   21171.48085197  .00001210  00000-0  69411-4 0  9994
2 20453  35.6232 244.6065 0276543 139.4133 222.7553 14.86550249665978
COSMOS 2058             
1 20465U 90010A   21171.54348800  .00000190  00000-0  13665-4 0  9996
2 20465  82.4896 279.0880 0016394  44.7167 315.5375 14.98224125683433
SL-14 R/B               
1 20466U 90010B   21171.46256059  .00000060  00000-0  46018-5 0  9997
2 20466  82.5039  82.3702 0019772 204.7506 155.2761 14.81426943673217
SL-14 R/B               
1 20511U 90018B   21171.39669683  .00000073  00000-0  65996-5 0  9999
2 20511  82.5234  30.4566 0017331 356.3743 176.8283 14.80081569688633
HST                     
1 20580U 90037B   21171.37356733  .00000508  00000-0  19764-4 0  9997
2 20580  28.4710  45.7568 0002842  94.8923  75.8009 15.09663011511485
SL-16 R/B               
1 20625U 90046B   21171.54749789 -.00000272  00000-0 -11674-3 0  9994
2 20625  70.9999 315.5736 0012879  34.4747 325.7208 14.14671402604676
COSMOS 2084             
1 20663U 90055A   21171.29771094  .00000010  00000-0  19222-4 0  9998
2 20663  62.7950  19.8402 0070565   7.3855 352.8260 14.92259561678251
SL-6 R/B(2)             
1 20666U 90055D   21171.55709903 -.00000052  00000-0  13663-4 0  9990
2 20666  62.7854 294.4720 0098708  35.2820 325.4753 14.92506649680238
SL-8 R/B                
1 20775U 90078B   21171.46286099  .00003220  00000-0  15229-3 0  9990
2 20775  82.9263 282.8123 0568325 133.3556 231.6472 14.35936927558523
SL-8 R/B                
1 21088U 91006B   21171.52565816  .00000099  00000-0  84650-4 0  9990
2 21088  82.9424  11.5658 0022570 177.2041 241.4154 13.77168205526873
OKEAN-3                 
1 21397U 91039A   21171.52424621  .00000243  00000-0  20709-4 0  9993
2 21397  82.5209 186.7869 0018341  22.8635 337.3398 14.93109744607166
COSMOS 2151             
1 21422U 91042A   21171.40123757  .00000182  00000-0  15252-4 0  9998
2 21422  82.5007 292.5957 0015721  84.7301 275.5712 14.92264249605703
SL-14 R/B               
1 21423U 91042B   21171.37143593  .00000071  00000-0  62829-5 0  9995
2 21423  82.4943  33.0377 0018729 130.6923 229.5921 14.79830926619115
ERS-1                   
1 21574U 91050A   21171.48896125  .00000024  00000-0  22871-4 0  9999
2 21574  98.6479 132.0123 0031765 273.3484  86.4069 14.37801484568001
ARIANE 40 R/B           
1 21610U 91050F   21171.42928156  .00000022  00000-0  20352-4 0  9994
2 21610  98.4229 242.1266 0002409 215.2416 155.4185 14.40952394570692
INTERCOSMOS 25          
1 21819U 91086A   21171.50688787 -.00000251  00000-0 -53921-4 0  9990
2 21819  82.5862 265.7253 1514923 207.6181 143.5816 12.05259054288621
SL-8 R/B                
1 21876U 92008B   21171.34357718  .00000053  00000-0  39514-4 0  9997
2 21876  82.9271 108.9901 0033333 266.9991 204.3554 13.75680453472682
SL-8 R/B                
1 21938U 92020B   21171.51917475  .00000127  00000-0  11606-3 0  9994
2 21938  82.9298 353.3051 0030519  67.7775 346.0063 13.75286652464562
COSMOS 2219             
1 22219U 92076A   21171.31052438  .00000012  00000-0  31183-4 0  9991
2 22219  71.0620  19.2551 0020088 309.2628  50.6712 14.13668786475125
SL-16 R/B               
1 22220U 92076B   21171.57892880 -.00000232  00000-0 -92217-4 0  9995
2 22220  70.9994 216.6508 0013899 210.6043 258.4157 14.16471880477800
COSMOS 2221             
1 22236U 92080A   21171.32984055  .00000191  00000-0  18018-4 0  9995
2 22236  82.5080 116.0211 0016580 174.9892 185.1495 14.88062794545020
SL-16 R/B               
1 22285U 92093B   21171.52461414 -.00000054  00000-0 -32268-5 0  9998
2 22285  71.0226  20.3295 0002794  26.3289 333.7975 14.15065139469373
COSMOS 2228             
1 22286U 92094A   21171.42947539  .00000182  00000-0  17017-4 0  9990
2 22286  82.5210  72.6058 0019783 301.3811  58.5470 14.88287165540247
SL-16 R/B               
1 22566U 93016B   21171.50179417  .00000161  00000-0  10800-3 0  9996
2 22566  71.0067 233.1767 0008460  60.4238 299.7727 14.14971190458393
COSMOS 2242             
1 22626U 93024A   21171.51090360  .00000205  00000-0  19507-4 0  9995
2 22626  82.5222 100.8087 0017559 301.6877  58.2627 14.88138005523574
SL-16 R/B               
1 22803U 93059B   21171.37565167 -.00000074  00000-0 -12880-4 0  9999
2 22803  70.9913  43.8958 0018922 310.8819  49.0664 14.16838864435678
ARIANE 40 R/B           
1 22830U 93061H   21171.52740789 -.00000009  00000-0  13559-4 0  9995
2 22830  98.7130 229.0875 0010159 327.9877  32.0688 14.31483636447480
COSMOS 2278             
1 23087U 94023A   21171.44013443 -.00000277  00000-0 -12155-3 0  9998
2 23087  71.0514 178.4879 0007619 154.6461 205.5037 14.13825649401206
SL-16 R/B               
1 23088U 94023B   21171.50835050  .00000120  00000-0  87301-4 0  9993
2 23088  71.0014  88.5962 0002777 355.2520   4.8576 14.14694350402361
SL-16 R/B               
1 23343U 94074B   21171.39803440  .00000014  00000-0  92970-5 0  9999
2 23343  97.9456 225.9876 0007948  52.8422 317.8160 14.76885255432935
SL-16 R/B               
1 23405U 94077B   21171.45077042  .00000115  00000-0  83473-4 0  9998
2 23405  70.9838  16.6938 0004769 265.6832  94.3745 14.15243149372415
ERS-2                   
1 23560U 95021A   21171.55058034  .00000914  00000-0  41493-4 0  9994
2 23560  98.5478  22.1216 0003702  18.7319 341.4050 15.23982212398163
ARIANE 40+ R/B          
1 23561U 95021B   21171.38771354  .00000028  00000-0  24194-4 0  9998
2 23561  98.6739 221.2195 0005951 236.5180 134.0699 14.38031273371676
SL-16 R/B               
1 23705U 95058B   21171.50482607 -.00000229  00000-0 -93513-4 0  9998
2 23705  71.0198 196.7264 0014290 232.7168 127.2653 14.15152368324040
SL-16 R/B               
1 24298U 96051B   21171.55750078 -.00000142  00000-0 -50411-4 0  9999
2 24298  70.8284 214.3983 0015981 175.6532 184.4730 14.12438896278335
ORBVIEW 2 (SEASTAR)     
1 24883U 97037A   21171.29066652  .00000046  00000-0  32807-4 0  9993
2 24883  98.6428 289.3654 0003527  98.3625 261.7959 14.33618697261412
SL-16 R/B               
1 25400U 98043G   21171.52177177 -.00000024  00000-0  83575-5 0  9994
2 25400  98.6404 107.3215 0009705 349.4592  10.6383 14.25477769193455
SL-16 R/B               
1 25407U 98045B   21171.50263993 -.00000095  00000-0 -24117-4 0  9998
2 25407  71.0096 204.0865 0006081 147.1459 213.0043 14.15836979183170
ISS (ZARYA)             
1 25544U 98067A   21171.52477565  .00000573  00000-0  18561-4 0  9993
2 25544  51.6439 326.2204 0003431 114.0576 357.2071 15.49003599289115
CZ-4B R/B               
1 25732U 99025C   21171.54341429 -.00000022  00000-0  11532-4 0  9999
2 25732  98.9015 208.0079 0036407 240.1439 241.4563 14.17694559143972
OKEAN-O                 
1 25860U 99039A   21171.51243893  .00000050  00000-0  14655-4 0  9998
2 25860  98.1819 202.3038 0001820 102.6823 257.4590 14.76740493179835
SL-16 R/B               
1 25861U 99039B   21171.54520757  .00000040  00000-0  12960-4 0  9995
2 25861  98.2034 186.9758 0016773  58.4630  56.3120 14.78645726182013
DELTA 2 R/B             
1 25876U 99041E   21171.54112022 -.00000164  00000-0  12426-4 0  9991
2 25876  51.7665 297.1061 0530872 337.7992  20.0698 14.04577522120354
HELIOS 1B               
1 25977U 99064A   21171.46581693  .00000062  00000-0  14878-4 0  9992
2 25977  98.3168 346.1020 0000737 157.8860 202.2384 14.82562167429643
